{
  "norad_id": 68960,
  "name": "STARLINK-36978",
  "history": [
    {
      "epoch": "2026-05-12T20:00:01.999008Z",
      "apogee_km": 328.3491050636994,
      "perigee_km": 327.4706129251708,
      "latitude_deg": 4.114376793272185,
      "longitude_deg": 164.13402461209552,
      "height_km": 328.16667227525846,
      "semi_major_axis_km": 6706.046858994435,
      "eccentricity": 6.55e-05,
      "inclination_deg": 53.1596,
      "raan_deg": 331.6727,
      "arg_perigee_deg": 64.8762,
      "mean_anomaly_deg": 300.3435,
      "mean_motion_rev_day": 15.80894492
    },
    {
      "epoch": "2026-05-13T20:00:01.999008Z",
      "apogee_km": 328.37516150615556,
      "perigee_km": 327.4939837015154,
      "latitude_deg": -44.24955223482848,
      "longitude_deg": 108.53509947754853,
      "height_km": 343.1778238745248,
      "semi_major_axis_km": 6706.071572603835,
      "eccentricity": 6.57e-05,
      "inclination_deg": 53.1589,
      "raan_deg": 326.6615,
      "arg_perigee_deg": 79.6845,
      "mean_anomaly_deg": 220.0001,
      "mean_motion_rev_day": 15.80885753
    }
  ]
}